COMMENT,ORIGINATOR,NORAD_CAT_ID,OBJECT_NAME,OBJECT_TYPE,CLASSIFICATION_TYPE,INTLDES,EPOCH,EPOCH_MICROSECONDS,MEAN_MOTION,ECCENTRICITY,INCLINATION,RA_OF_ASC_NODE,ARG_OF_PERICENTER,MEAN_ANOMALY,EPHEMERIS_TYPE,ELEMENT_SET_NO,REV_AT_EPOCH,BSTAR,MEAN_MOTION_DOT,MEAN_MOTION_DDOT,FILE,TLE_LINE0,TLE_LINE1,TLE_LINE2,OBJECT_ID,OBJECT_NUMBER,SEMIMAJOR_AXIS,PERIOD,APOGEE,PERIGEE,DECAYED
GENERATED VIA SPACETRACK.ORG API,18 SPCS,57309,STARLINK-30163,PAYLOAD,U,23096V,2024-07-31 13:39:19,224,15.02563496,0.0001132,43.0021,167.6318,270.0561,90.0152,0,999,5854,0.00046973,0.00006152,0,4408741,0 STARLINK-30163,1 57309U 23096V   24213.56896991  .00006152  00000-0  46973-3 0  9995,2 57309  43.0021 167.6318 0001132 270.0561  90.0152 15.02563496 58546,2023-096V,57309,6937.132,95.836,559.782,558.212,1
GENERATED VIA SPACETRACK.ORG API,18 SPCS,57309,STARLINK-30163,PAYLOAD,U,23096V,2024-07-31 21:37:57,346752,15.02558374,0.0001106,43.0029,165.8273,273.0895,86.9821,0,999,5859,0.00035447,0.00004591,0,4409202,0 STARLINK-30163,1 57309U 23096V   24213.90135818  .00004591  00000-0  35447-3 0  9996,2 57309  43.0029 165.8273 0001106 273.0895  86.9821 15.02558374 58599,2023-096V,57309,6937.148,95.837,559.780,558.245,1
GENERATED VIA SPACETRACK.ORG API,18 SPCS,57309,STARLINK-30163,PAYLOAD,U,23096V,2024-08-01 04:00:52,313760,15.02548099,0.0001183,43.0005,164.3776,268.4272,91.6434,0,999,5860,0.00014932,0.00001815,0,4409356,0 STARLINK-30163,1 57309U 23096V   24214.16727215  .00001815  00000-0  14932-3 0  9995,2 57309  43.0005 164.3776 0001183 268.4272  91.6434 15.02548099 58605,2023-096V,57309,6937.179,95.837,559.865,558.224,1
GENERATED VIA SPACETRACK.ORG API,18 SPCS,57309,STARLINK-30163,PAYLOAD,U,23096V,2024-08-01 13:35:14,462304,15.02543299,0.0001237,43.002,162.2113,258.8299,101.2404,0,999,5869,0.000049037,0.00000459,0,4410117,0 STARLINK-30163,1 57309U 23096V   24214.56613961  .00000459  00000-0  49037-4 0  9999,2 57309  43.0020 162.2113 0001237 258.8299 101.2404 15.02543299 58697,2023-096V,57309,6937.194,95.838,559.917,558.201,1
GENERATED VIA SPACETRACK.ORG API,18 SPCS,57309,STARLINK-30163,PAYLOAD,U,23096V,2024-08-01 21:33:52,840800,15.02541434,0.0001274,42.9999,160.4041,267.0836,92.9861,0,999,5871,-0.000189,-0.00002756,0,4410381,0 STARLINK-30163,1 57309U 23096V   24214.89852825 -.00002756  00000-0 -18900-3 0  9997,2 57309  42.9999 160.4041 0001274 267.0836  92.9861 15.02541434 58715,2023-096V,57309,6937.200,95.838,559.949,558.181,1
GENERATED VIA SPACETRACK.ORG API,18 SPCS,57309,STARLINK-30163,PAYLOAD,U,23096V,2024-08-01 21:33:52,840800,15.02541434,0.0001274,42.9999,160.4041,267.0836,92.9861,0,999,5874,-0.000189,-0.00002756,0,4410768,0 STARLINK-30163,1 57309U 23096V   24214.89852825 -.00002756  00000-0 -18900-3 0  9997,2 57309  42.9999 160.4041 0001274 267.0836  92.9861 15.02541434 58748,2023-096V,57309,6937.200,95.838,559.949,558.181,1
GENERATED VIA SPACETRACK.ORG API,18 SPCS,57309,STARLINK-30163,PAYLOAD,U,23096V,2024-08-02 02:21:04,639104,15.02524305,0.0001417,43.0007,159.3197,261.0874,98.9808,0,999,5874,-0.0001795,-0.00002627,0,4410885,0 STARLINK-30163,1 57309U 23096V   24215.09797036 -.00002627  00000-0 -17950-3 0  9993,2 57309  43.0007 159.3197 0001417 261.0874  98.9808 15.02524305 58749,2023-096V,57309,6937.253,95.839,560.101,558.135,1
GENERATED VIA SPACETRACK.ORG API,18 SPCS,57309,STARLINK-30163,PAYLOAD,U,23096V,2024-08-02 13:31:10,504992,15.02526672,0.0001408,43.0011,156.7919,266.045,94.0231,0,999,5884,-0.00033994,-0.00004791,0,4412141,0 STARLINK-30163,1 57309U 23096V   24215.56331603 -.00004791  00000-0 -33994-3 0  9999,2 57309  43.0011 156.7919 0001408 266.0450  94.0231 15.02526672 58849,2023-096V,57309,6937.245,95.839,560.087,558.133,1
GENERATED VIA SPACETRACK.ORG API,18 SPCS,57309,STARLINK-30163,PAYLOAD,U,23096V,2024-08-02 19:54:05,942880,15.02525378,0.0001504,43.0021,155.3473,268.9795,91.0875,0,999,5888,-0.0001064,-0.0000164,0,4412788,0 STARLINK-30163,1 57309U 23096V   24215.82923545 -.00001640  00000-0 -10640-3 0  9993,2 57309  43.0021 155.3473 0001504 268.9795  91.0875 15.02525378 58887,2023-096V,57309,6937.249,95.839,560.158,558.071,1
GENERATED VIA SPACETRACK.ORG API,18 SPCS,57309,STARLINK-30163,PAYLOAD,U,23096V,2024-08-03 02:17:00,309408,15.02528259,0.0001857,43.0025,153.9028,269.2828,90.7802,0,999,5889,0.0000044343,-0.00000144,0,4413676,0 STARLINK-30163,1 57309U 23096V   24216.09514247 -.00000144  00000-0  44343-5 0  9994,2 57309  43.0025 153.9028 0001857 269.2828  90.7802 15.02528259 58891,2023-096V,57309,6937.240,95.838,560.394,557.817,1
GENERATED VIA SPACETRACK.ORG API,18 SPCS,57309,STARLINK-30163,PAYLOAD,U,23096V,2024-08-03 02:17:00,309408,15.02528259,0.0001857,43.0025,153.9028,269.2828,90.7802,0,999,5892,0.0000044343,-0.00000144,0,4414088,0 STARLINK-30163,1 57309U 23096V   24216.09514247 -.00000144  00000-0  44343-5 0  9994,2 57309  43.0025 153.9028 0001857 269.2828  90.7802 15.02528259 58925,2023-096V,57309,6937.240,95.838,560.394,557.817,1
GENERATED VIA SPACETRACK.ORG API,18 SPCS,57309,STARLINK-30163,PAYLOAD,U,23096V,2024-08-03 19:50:00,161664,15.02548964,0.0001436,43.0017,149.9277,261.9871,98.0809,0,999,5900,-0.000092696,-0.00001456,0,4414364,0 STARLINK-30163,1 57309U 23096V   24216.82639076 -.00001456  00000-0 -92696-4 0  9994,2 57309  43.0017 149.9277 0001436 261.9871  98.0809 15.02548964 59000,2023-096V,57309,6937.177,95.837,560.038,558.045,1
GENERATED VIA SPACETRACK.ORG API,18 SPCS,57309,STARLINK-30163,PAYLOAD,U,23096V,2024-08-03 19:50:00,161664,15.02548964,0.0001436,43.0017,149.9277,261.9871,98.0809,0,999,5903,-0.000092696,-0.00001456,0,4414737,0 STARLINK-30163,1 57309U 23096V   24216.82639076 -.00001456  00000-0 -92696-4 0  9994,2 57309  43.0017 149.9277 0001436 261.9871  98.0809 15.02548964 59033,2023-096V,57309,6937.177,95.837,560.038,558.045,1
GENERATED VIA SPACETRACK.ORG API,18 SPCS,57309,STARLINK-30163,PAYLOAD,U,23096V,2024-08-04 11:47:18,66048,15.02529681,0.0001027,43.0036,146.3203,291.6188,68.4545,0,999,5910,0.00027979,0.00003577,0,4415597,0 STARLINK-30163,1 57309U 23096V   24217.49118132  .00003577  00000-0  27979-3 0  9998,2 57309  43.0036 146.3203 0001027 291.6188  68.4545 15.02529681 59102,2023-096V,57309,6937.236,95.838,559.813,558.389,1
GENERATED VIA SPACETRACK.ORG API,18 SPCS,57309,STARLINK-30163,PAYLOAD,U,23096V,2024-08-04 11:47:18,66048,15.02529681,0.0001027,43.0036,146.3203,291.6188,68.4545,0,999,5913,0.00027979,0.00003577,0,4416025,0 STARLINK-30163,1 57309U 23096V   24217.49118132  .00003577  00000-0  27979-3 0  9998,2 57309  43.0036 146.3203 0001027 291.6188  68.4545 15.02529681 59135,2023-096V,57309,6937.236,95.838,559.813,558.389,1
GENERATED VIA SPACETRACK.ORG API,18 SPCS,57309,STARLINK-30163,PAYLOAD,U,23096V,2024-08-05 11:43:12,683136,15.02544095,0.0001153,43.0028,140.8992,257.7105,102.3609,0,999,5925,0.00015311,0.00001866,0,4417716,0 STARLINK-30163,1 57309U 23096V   24218.48834124  .00001866  00000-0  15311-3 0  9990,2 57309  43.0028 140.8992 0001153 257.7105 102.3609 15.02544095 59250,2023-096V,57309,6937.192,95.837,559.856,558.257,1
GENERATED VIA SPACETRACK.ORG API,18 SPCS,57309,STARLINK-30163,PAYLOAD,U,23096V,2024-08-05 18:06:07,394400,15.02542445,0.0001198,43.0016,139.4551,266.7885,93.2821,0,999,5932,0.00019454,0.00002426,0,4418857,0 STARLINK-30163,1 57309U 23096V   24218.75425225  .00002426  00000-0  19454-3 0  9993,2 57309  43.0016 139.4551 0001198 266.7885  93.2821 15.02542445 59325,2023-096V,57309,6937.197,95.838,559.893,558.231,1
GENERATED VIA SPACETRACK.ORG API,18 SPCS,57309,STARLINK-30163,PAYLOAD,U,23096V,2024-08-06 03:40:31,473984,15.02518749,0.0001214,43.0025,137.2882,267.0691,93.0013,0,999,5935,-0.0001129,-0.00001728,0,4419135,0 STARLINK-30163,1 57309U 23096V   24219.15314206 -.00001728  00000-0 -11290-3 0  9990,2 57309  43.0025 137.2882 0001214 267.0691  93.0013 15.02518749 59350,2023-096V,57309,6937.270,95.839,559.977,558.292,1
GENERATED VIA SPACETRACK.ORG API,18 SPCS,57309,STARLINK-30163,PAYLOAD,U,23096V,2024-08-06 11:39:09,693504,15.02524437,0.0001236,43.0031,135.4817,253.6094,106.4612,0,999,5940,-0.000078985,-0.0000127,0,4419758,0 STARLINK-30163,1 57309U 23096V   24219.48552886 -.00001270  00000-0 -78985-4 0  9991,2 57309  43.0031 135.4817 0001236 253.6094 106.4612 15.02524437 59408,2023-096V,57309,6937.252,95.839,559.975,558.260,1
GENERATED VIA SPACETRACK.ORG API,18 SPCS,57309,STARLINK-30163,PAYLOAD,U,23096V,2024-08-06 11:39:09,693504,15.02524437,0.0001236,43.0031,135.4817,253.6094,106.4612,0,999,5943,-0.000078985,-0.0000127,0,4420137,0 STARLINK-30163,1 57309U 23096V   24219.48552886 -.00001270  00000-0 -78985-4 0  9991,2 57309  43.0031 135.4817 0001236 253.6094 106.4612 15.02524437 59431,2023-096V,57309,6937.252,95.839,559.975,558.260,1
GENERATED VIA SPACETRACK.ORG API,18 SPCS,57309,STARLINK-30163,PAYLOAD,U,23096V,2024-08-06 19:37:47,620128,15.02528579,0.0001401,43.0018,133.676,255.1456,104.9231,0,999,5945,0.000006539,-0.00000115,0,4420358,0 STARLINK-30163,1 57309U 23096V   24219.81791227 -.00000115  00000-0  65390-5 0  9995,2 57309  43.0018 133.6760 0001401 255.1456 104.9231 15.02528579 59459,2023-096V,57309,6937.239,95.838,560.076,558.132,1
GENERATED VIA SPACETRACK.ORG API,18 SPCS,57309,STARLINK-30163,PAYLOAD,U,23096V,2024-08-06 21:13:31,237248,15.0253105,0.0001411,43.0018,133.3154,255.8508,104.2177,0,999,5949,0.000050955,0.00000485,0,4420814,0 STARLINK-30163,1 57309U 23096V   24219.88438932  .00000485  00000-0  50955-4 0  9992,2 57309  43.0018 133.3154 0001411 255.8508 104.2177 15.02531050 59493,2023-096V,57309,6937.232,95.838,560.076,558.118,1
GENERATED VIA SPACETRACK.ORG API,18 SPCS,57309,STARLINK-30163,PAYLOAD,U,23096V,2024-08-06 22:49:14,921760,15.0253286,0.0001345,43.0023,132.9547,256.9922,103.077,0,999,5950,0.000089923,0.00001011,0,4421867,0 STARLINK-30163,1 57309U 23096V   24219.95086715  .00001011  00000-0  89923-4 0  9991,2 57309  43.0023 132.9547 0001345 256.9922 103.0770 15.02532860 59506,2023-096V,57309,6937.226,95.838,560.024,558.158,1
